{
"type": "FeatureCollection",
"name": "copenhagen_just",
"crs": { "type": "name", "properties": { "name": "urn:ogc:def:crs:OGC:1.3:CRS84" } },
"features": [
{ "type": "Feature", "properties": { "id": null, "bydel_nr": null, "name": "Copenhagem", "cartodb_id": null, "created_at": null, "updated_at": null }, "geometry": { "type": "Polygon", "coordinates": [ [ [ 12.465378827554131, 55.719133074735012 ], [ 12.471888956829005, 55.719276871776898 ], [ 12.483505069848878, 55.725100207066404 ], [ 12.488483404000251, 55.725100207066404 ], [ 12.50290780807987, 55.721074290130296 ], [ 12.511587980446372, 55.720858604295607 ], [ 12.519502255251121, 55.728550662673783 ], [ 12.534692556892491, 55.727903725473553 ], [ 12.546308669912362, 55.724884543466601 ], [ 12.560222475617486, 55.723662427235183 ], [ 12.56366901464536, 55.733366413787934 ], [ 12.578093418724981, 55.729700746783969 ], [ 12.580008162629353, 55.723159191787296 ], [ 12.60349568785635, 55.726394163651975 ], [ 12.615239450469849, 55.722296487360168 ], [ 12.629919153736722, 55.726466048871679 ], [ 12.635535735856218, 55.725243982137897 ], [ 12.641918215537467, 55.722655949854278 ], [ 12.604133935824477, 55.704103365245167 ], [ 12.602985089481852, 55.697485583642987 ], [ 12.620473083808472, 55.698924327139444 ], [ 12.630557401704845, 55.698348836095832 ], [ 12.636301633417967, 55.690219119954847 ], [ 12.64013112122672, 55.681224101523206 ], [ 12.642811762692844, 55.680072589792715 ], [ 12.645364754565344, 55.679784706562998 ], [ 12.650470738310343, 55.675538182801454 ], [ 12.641918215537467, 55.664667861129942 ], [ 12.64715184887609, 55.657755357777191 ], [ 12.653917277338216, 55.654730753673611 ], [ 12.651491935059342, 55.645295368274304 ], [ 12.629919153736722, 55.642846117995852 ], [ 12.627876760238721, 55.64010853937198 ], [ 12.618047741529599, 55.63816330144963 ], [ 12.614601202501726, 55.638739678311609 ], [ 12.594560216302602, 55.637226670962129 ], [ 12.593794318740853, 55.622309614321289 ], [ 12.573370383760855, 55.614668729806326 ], [ 12.527416530055863, 55.614164090672823 ], [ 12.521544648749119, 55.613515259386347 ], [ 12.51388567313162, 55.612433850050202 ], [ 12.504822551984248, 55.612938511451766 ], [ 12.505333150358744, 55.615894254948415 ], [ 12.513247425163494, 55.615461721036951 ], [ 12.531756616239116, 55.629804883950406 ], [ 12.52882067558574, 55.63232700810098 ], [ 12.529969521928365, 55.634921023588383 ], [ 12.522948794278994, 55.636290018081212 ], [ 12.518991656876619, 55.635713605177749 ], [ 12.509290287761118, 55.632975528073068 ], [ 12.499844217832873, 55.63801920590911 ], [ 12.499205969864745, 55.64025262722739 ], [ 12.493334088557999, 55.643710576759716 ], [ 12.490398147904623, 55.644791123384586 ], [ 12.482483873099874, 55.652138049877593 ], [ 12.475335495856879, 55.656819195763489 ], [ 12.476229043012252, 55.670139393879758 ], [ 12.473165452765254, 55.671291198029067 ], [ 12.466655323490381, 55.679208933746949 ], [ 12.464740579586003, 55.684606471176764 ], [ 12.464485280398753, 55.691370332950541 ], [ 12.46103874137088, 55.695902904629605 ], [ 12.461804638932632, 55.701801655260574 ], [ 12.453635064940633, 55.705182245134623 ], [ 12.451209722661758, 55.710504283328142 ], [ 12.451592671442631, 55.713956028618853 ], [ 12.460911091777255, 55.718845479062942 ], [ 12.465378827554131, 55.719133074735012 ] ] ] } }
]
}
