{
"type": "FeatureCollection",
"name": "paris_metropolis",
"crs": { "type": "name", "properties": { "name": "urn:ogc:def:crs:OGC:1.3:CRS84" } },
"features": [
{ "type": "Feature", "properties": { "code": "91174", "nom": "Corbeil-Essonnes" }, "geometry": { "type": "MultiPolygon", "coordinates": [ [ [ [ 2.1121463457387, 48.673960077453003 ], [ 2.1029929844778, 48.676436306151999 ], [ 2.1056293071153, 48.686765463739007 ], [ 2.116146032823, 48.691010398947 ], [ 2.1058658354748, 48.694541694160002 ], [ 2.0978580418958, 48.694030740642006 ], [ 2.0969343192737, 48.702748042418001 ], [ 2.1103286614936, 48.714378412670001 ], [ 2.1233072674344, 48.715975723890992 ], [ 2.1274762034649, 48.70946609387201 ], [ 2.1363851511, 48.706021096403006 ], [ 2.15146929908, 48.707349047566986 ], [ 2.1550988109552, 48.71805980093 ], [ 2.1716814710683, 48.714803007769007 ], [ 2.1832977888465, 48.718189569488004 ], [ 2.1934850570769, 48.718696902910999 ], [ 2.2034622767258, 48.721045886051002 ], [ 2.2128995246405, 48.728794473188998 ], [ 2.2175027518525, 48.735630982122991 ], [ 2.204033360406, 48.736919903524992 ], [ 2.1902338205345, 48.739285322607998 ], [ 2.1826038350561, 48.74143250640001 ], [ 2.1895215895924, 48.754159283089997 ], [ 2.1820123672797, 48.757574558862999 ], [ 2.1680122718546, 48.756836536461002 ], [ 2.1605126243942, 48.752014252612994 ], [ 2.1506777536849, 48.753710336104 ], [ 2.1384211955586, 48.746153423019997 ], [ 2.1388928256305, 48.74312113689399 ], [ 2.128441082810899, 48.753394501552989 ], [ 2.152082429931001, 48.760273725946 ], [ 2.157677711933899, 48.764082903542992 ], [ 2.1458572646733, 48.77073489733899 ], [ 2.1482444438738, 48.787465246392998 ], [ 2.1463965524613, 48.790842002311003 ], [ 2.1405946708333, 48.792674822583997 ], [ 2.1244797201278, 48.779934313864992 ], [ 2.1054681695412, 48.780738794907002 ], [ 2.1014992133784, 48.756490441535007 ], [ 2.0785924403464, 48.753926022623993 ], [ 2.068439807092699, 48.756711145400999 ], [ 2.0595081153335, 48.751320794239994 ], [ 2.0414627510467, 48.751643223883001 ], [ 2.0255399430615, 48.755856989099001 ], [ 2.0112343477997, 48.761964622675002 ], [ 1.9917059605618, 48.747566255146999 ], [ 1.9872898872951, 48.739554049421997 ], [ 1.9886761360394, 48.728995875335997 ], [ 1.9715315065144, 48.720944551350001 ], [ 1.9635529332254, 48.725324467958998 ], [ 1.9647159711012, 48.733732283861002 ], [ 1.9590349295092, 48.737543507143002 ], [ 1.951485131312, 48.734206864424003 ], [ 1.9353250807174, 48.737276826357991 ], [ 1.9324220737288, 48.741715997286001 ], [ 1.9244906418761, 48.739396964948 ], [ 1.9199818793935, 48.733898091528005 ], [ 1.9066538017188, 48.735288818352998 ], [ 1.9032873233198, 48.738243384680999 ], [ 1.8960033818834, 48.745777915547002 ], [ 1.8934896723434, 48.765171029047991 ], [ 1.9010659544572, 48.768130106765 ], [ 1.897309851397, 48.776528975824995 ], [ 1.9085263754898, 48.785063587649006 ], [ 1.9365112238762, 48.779934466553996 ], [ 1.9412419875117, 48.791543518833997 ], [ 1.9353491445489, 48.791997556955003 ], [ 1.914912304826, 48.802631462314991 ], [ 1.9105824586927, 48.816188078746002 ], [ 1.913070277963, 48.819935290669001 ], [ 1.9217316618252, 48.826122652854991 ], [ 1.9274646679515, 48.824030869101001 ], [ 1.9441714219471, 48.837892135534993 ], [ 1.9687955283502, 48.834824998012003 ], [ 1.9700888722439, 48.834873917297998 ], [ 1.9836440035973, 48.833531022261994 ], [ 1.9927188753132, 48.841781626279008 ], [ 2.0057473232435, 48.849466277571999 ], [ 2.0184549712612, 48.846454795109999 ], [ 2.022626671890599, 48.841783289234002 ], [ 2.0354725942326, 48.845501339307994 ], [ 2.0415463483712, 48.84304443417399 ], [ 2.0332134935927, 48.836159013294001 ], [ 2.0302587780247, 48.829031569079994 ], [ 2.0347814204445, 48.826166655084009 ], [ 2.0468361015562, 48.824938512179003 ], [ 2.0526831569026, 48.830748386109995 ], [ 2.0593923741248, 48.829397368234993 ], [ 2.0706835999273, 48.823013503650003 ], [ 2.0831677972524, 48.81895459925299 ], [ 2.0891214822264, 48.826337473778999 ], [ 2.1008406617316, 48.838324309294002 ], [ 2.1026598625901, 48.842740494132997 ], [ 2.0927033305499, 48.846180210222002 ], [ 2.0842268250961, 48.850162871715995 ], [ 2.0837303272859, 48.854295341982002 ], [ 2.0708584678953, 48.854626886193998 ], [ 2.0777738008821, 48.867649423947995 ], [ 2.0773682436174, 48.873613624228994 ], [ 2.0630225509675, 48.878525162415997 ], [ 2.0468155719057, 48.874711594664994 ], [ 2.0371924231954, 48.877653770381997 ], [ 2.0202528847122, 48.882597775243994 ], [ 1.998378001613, 48.891399654512995 ], [ 1.9914784680966, 48.892009071478 ], [ 1.9818808321495, 48.900293730595003 ], [ 1.9922378086191, 48.910982913997991 ], [ 2.0086194939276, 48.920699413883 ], [ 1.9998303893253, 48.928044102589993 ], [ 1.9823402139174, 48.930734247990991 ], [ 1.9784874856141, 48.94551521887 ], [ 1.9988713407983, 48.949583036820002 ], [ 2.0025265991932, 48.953996763589004 ], [ 1.9961498644494, 48.96706354412801 ], [ 1.9751230026269, 48.956477976665994 ], [ 1.9694643811254, 48.94611697684099 ], [ 1.955728376788, 48.956822336380995 ], [ 1.9517198364392, 48.963684200951008 ], [ 1.9535838047459, 48.969945281683991 ], [ 1.9496738752309, 48.979772856574996 ], [ 1.9390842605029, 48.980906310816991 ], [ 1.9464703409703, 49.00638076767099 ], [ 1.9651642923312, 49.001452607847995 ], [ 1.9825189697018, 48.992429257063996 ], [ 1.992688939680999, 49.003071678764989 ], [ 2.0048823724055, 49.010070786588003 ], [ 1.9918871076265, 49.021006179042999 ], [ 1.974053010825, 49.019426174587991 ], [ 1.9570798428764, 49.021799657115999 ], [ 1.9549423612736, 49.024533707310994 ], [ 1.960947593593, 49.034805853053001 ], [ 1.9836503971896, 49.034560408906998 ], [ 1.986047351523, 49.043832976268 ], [ 1.9943435905744, 49.060714726628994 ], [ 2.010602357654999, 49.056123398792991 ], [ 2.024082079128, 49.054236477897994 ], [ 2.0277597352368, 49.056500864521993 ], [ 2.034628596642699, 49.062809414184997 ], [ 2.0455906273275, 49.082982520784 ], [ 2.0630963482245, 49.086402287690007 ], [ 2.084135932596, 49.084202251119002 ], [ 2.1164629081242, 49.093575384439994 ], [ 2.1303265270456, 49.085953415652 ], [ 2.142152141641, 49.091980152850006 ], [ 2.1498374821012, 49.104154643214002 ], [ 2.159706806460699, 49.103675519279001 ], [ 2.1704781719463, 49.094651643696999 ], [ 2.1735921320514, 49.08818556024999 ], [ 2.1805295928629, 49.078796173642992 ], [ 2.1931404294226, 49.073860451041 ], [ 2.188906555776, 49.072147776487995 ], [ 2.2026831224305, 49.065020378049994 ], [ 2.2040616806541, 49.061059578728994 ], [ 2.2313055167243, 49.051786411275998 ], [ 2.2348654014963, 49.04936331148599 ], [ 2.2393970180134, 49.045763806593001 ], [ 2.2531469375701, 49.041415208430003 ], [ 2.2582743730786, 49.040010050229 ], [ 2.2747729042536, 49.036441142901992 ], [ 2.2766795051646, 49.041834389355998 ], [ 2.2850102268381, 49.049125524792991 ], [ 2.3098503990316, 49.048189972473999 ], [ 2.3219494120683, 49.050753235377002 ], [ 2.3245472270672, 49.045083167945997 ], [ 2.3373118899511, 49.045437515272987 ], [ 2.3404868382668, 49.038434057232998 ], [ 2.349829533365599, 49.040298681023003 ], [ 2.3519832187743, 49.044723572685001 ], [ 2.3698421476023, 49.054523526558 ], [ 2.3829018278351, 49.042019771581991 ], [ 2.3995744622158, 49.039721413553998 ], [ 2.4007672844595, 49.034020172765999 ], [ 2.4095452647737, 49.024205700343991 ], [ 2.4102723965958, 49.023989867620003 ], [ 2.4251187010434, 49.013986228226003 ], [ 2.4432328053001, 49.012646357289 ], [ 2.4446863165653, 49.006345989348993 ], [ 2.4573463692803, 49.001997720205999 ], [ 2.4670045646387, 48.994452452347993 ], [ 2.4798089512138, 48.994999620934991 ], [ 2.483498760377099, 48.999247305497995 ], [ 2.485755623858199, 48.999333431465999 ], [ 2.4839918568891, 48.996522083892991 ], [ 2.4959175364575, 48.988544478289 ], [ 2.501876591841199, 48.978534817721986 ], [ 2.514763879623, 48.982255621302997 ], [ 2.5183558101117, 48.989460343599994 ], [ 2.5322372193717, 49.005223735411995 ], [ 2.5477767707755, 49.004873251061994 ], [ 2.5530565519414, 49.009816202998991 ], [ 2.5657856607901, 49.012397786393002 ], [ 2.571671585960599, 48.999841685022993 ], [ 2.5758390395296, 49.000282714644001 ], [ 2.613058095306299, 49.008110214129005 ], [ 2.6241007143311, 49.007028491241989 ], [ 2.6346772328511, 49.000051819037992 ], [ 2.642842200848599, 48.989239949473003 ], [ 2.660825333033499, 48.974757952811004 ], [ 2.6499141793837, 48.965162328204997 ], [ 2.6531996270323, 48.955619205318001 ], [ 2.6433467453421, 48.953352969840999 ], [ 2.6358317802026, 48.942183209231992 ], [ 2.6364618240764, 48.933096261825995 ], [ 2.6162147083845, 48.924786809145999 ], [ 2.612492691241299, 48.904332299479002 ], [ 2.6266814225224, 48.894223410081999 ], [ 2.6447654971522, 48.903770482221994 ], [ 2.6574959292341, 48.897292180150991 ], [ 2.6518418933683, 48.882871750736001 ], [ 2.6608499853619, 48.874040288642 ], [ 2.6620115936135, 48.874665899855991 ], [ 2.6739594692991, 48.876520146986998 ], [ 2.690587252217, 48.880269436196002 ], [ 2.7038423066584, 48.880691460418006 ], [ 2.7028577692352, 48.885961649188005 ], [ 2.6945630060669, 48.888682750662994 ], [ 2.6930047639559, 48.899930769279997 ], [ 2.7113528835543, 48.899829810001997 ], [ 2.710292088173401, 48.903921716080994 ], [ 2.7242706110179, 48.90284408948299 ], [ 2.727678436722699, 48.902788036518999 ], [ 2.760640534403, 48.904283813035995 ], [ 2.7667600349671, 48.902464038716992 ], [ 2.7679153489615, 48.893913127584995 ], [ 2.7643213782436, 48.889433008550995 ], [ 2.777214455125899, 48.881422436112004 ], [ 2.7889671875313, 48.869551270058999 ], [ 2.7863660869974, 48.86025850512501 ], [ 2.8002127523266, 48.862722277026982 ], [ 2.8036251396138, 48.877008114583994 ], [ 2.815644701957599, 48.880196380206002 ], [ 2.828655501566, 48.878471057424996 ], [ 2.8232186828896, 48.872651825853005 ], [ 2.8276202243698, 48.864176820090989 ], [ 2.8356398945773, 48.860952355995991 ], [ 2.8345081605089, 48.85937518771 ], [ 2.8234426546863, 48.841567066369997 ], [ 2.839223143837299, 48.841986821665003 ], [ 2.8411484842769, 48.833453777166 ], [ 2.8368920658774, 48.829741856074001 ], [ 2.8213003435224, 48.830179141194996 ], [ 2.8135583990718, 48.832624330191997 ], [ 2.8030314925252, 48.829205237781991 ], [ 2.802354310785399, 48.829612423522995 ], [ 2.797673748358501, 48.831392494661998 ], [ 2.7847120280162, 48.828116032309993 ], [ 2.7742285852354, 48.837636939440998 ], [ 2.7744239978472, 48.851037391868999 ], [ 2.7523437778708, 48.850676263489994 ], [ 2.7427018381582, 48.847204281947008 ], [ 2.7468889529183, 48.842776794312002 ], [ 2.7489942063147, 48.829166989471993 ], [ 2.7480768671436, 48.820833473674 ], [ 2.7509532825076, 48.814568285001997 ], [ 2.749208754651, 48.805521545154996 ], [ 2.7280140486001, 48.797299023506994 ], [ 2.721194646159999, 48.806039582495004 ], [ 2.7295039405809, 48.814514487728999 ], [ 2.7233240267127, 48.820692425165994 ], [ 2.7285049612519, 48.826435875926002 ], [ 2.7206490733273, 48.829095147848001 ], [ 2.6899623824408, 48.830630269276995 ], [ 2.6744587511571, 48.840266033992997 ], [ 2.66838349084, 48.840909463623994 ], [ 2.6699227731161, 48.847845822981 ], [ 2.6844038154799, 48.839074975939994 ], [ 2.6986351037322, 48.849098819040002 ], [ 2.6972545688822, 48.85427997979999 ], [ 2.7098525754802, 48.854286009388993 ], [ 2.709450750684399, 48.864757669597999 ], [ 2.696455021323799, 48.866604094884998 ], [ 2.6868626985633, 48.860445105177995 ], [ 2.676595193454899, 48.857598410142991 ], [ 2.6822929844181, 48.849201333114998 ], [ 2.6623340941365, 48.850155723276998 ], [ 2.6583137319752, 48.838564417883994 ], [ 2.665626275887901, 48.832342721341 ], [ 2.6585346819674, 48.832497159238002 ], [ 2.6379692135192, 48.831022899481994 ], [ 2.6278856077558, 48.819624090749002 ], [ 2.6302089511922, 48.809462183166993 ], [ 2.6281438610397, 48.804609069091001 ], [ 2.6433764115855, 48.807451626642994 ], [ 2.6534131693958, 48.806792229658996 ], [ 2.6560375526666, 48.802780520497997 ], [ 2.6761097624313, 48.801286974946009 ], [ 2.6806278564985, 48.795152803018993 ], [ 2.6930034858398, 48.794667191264999 ], [ 2.705018812389799, 48.781543989492 ], [ 2.6981954032701, 48.778194713603007 ], [ 2.6657020711415, 48.78207272596201 ], [ 2.6719840059217, 48.775395071030985 ], [ 2.6632521434438, 48.773037747344006 ], [ 2.6491201966462, 48.774792269767993 ], [ 2.6408578707682, 48.76882719444 ], [ 2.6341880239814, 48.77001305049901 ], [ 2.6148182997206, 48.761116417175998 ], [ 2.5975493852329, 48.760571096669999 ], [ 2.6023411143901, 48.753730034286995 ], [ 2.5961922065253, 48.747316344161 ], [ 2.5858204453665, 48.741487637604997 ], [ 2.5946737376888, 48.731806001349995 ], [ 2.5852087623188, 48.727242137594992 ], [ 2.573583304445501, 48.713099719470002 ], [ 2.5681304477411, 48.708975920928999 ], [ 2.5688027048808, 48.707221723749001 ], [ 2.5743424247998, 48.700999405067002 ], [ 2.5716535034613, 48.69201676557001 ], [ 2.5538613239117, 48.68832669070099 ], [ 2.5490013276388, 48.689022588284992 ], [ 2.5431073302003, 48.686765874151995 ], [ 2.541114507009, 48.680567157571005 ], [ 2.5475678752629, 48.67177694165801 ], [ 2.5594038933391, 48.672390641127997 ], [ 2.567861193238799, 48.666756665283003 ], [ 2.5710332576806, 48.674885026993998 ], [ 2.5840740253462, 48.677151136774 ], [ 2.5836205421595, 48.667578210821993 ], [ 2.597660456421699, 48.666370746923 ], [ 2.6126375803428, 48.663573495668999 ], [ 2.6196204911847, 48.651522170266993 ], [ 2.613528760471299, 48.651755328035009 ], [ 2.6076823599679, 48.646058618517991 ], [ 2.574314327762099, 48.646720353719992 ], [ 2.5730468699213, 48.643844618860996 ], [ 2.5503437351517, 48.64556550494099 ], [ 2.5479654644727, 48.649660919124997 ], [ 2.5336146170614, 48.657334981367008 ], [ 2.5290141231899, 48.660713369964995 ], [ 2.5181575417026, 48.660371345787993 ], [ 2.5074379178733, 48.656169171256003 ], [ 2.4916221139985, 48.639410690711991 ], [ 2.5052254394364, 48.631850003555002 ], [ 2.5214067511271, 48.631877432539 ], [ 2.5182318429154, 48.627093611305 ], [ 2.5268345542116, 48.621417058074996 ], [ 2.5258420647199, 48.613103319178997 ], [ 2.5406937585523, 48.611406555086994 ], [ 2.5425126002136, 48.608796832795001 ], [ 2.5414489820844, 48.596887429709994 ], [ 2.5333428613649, 48.589171157103003 ], [ 2.5182811370135, 48.583253306769997 ], [ 2.508868668606, 48.584030726506001 ], [ 2.4890403036639, 48.581197321093001 ], [ 2.482372786580299, 48.582563711982999 ], [ 2.4812572758064, 48.580205625655992 ], [ 2.473846188292, 48.577710108456003 ], [ 2.4563607687813, 48.563870009607001 ], [ 2.4539105706535, 48.558388506556 ], [ 2.4697491207951, 48.556034921443995 ], [ 2.465176583759499, 48.541467383430998 ], [ 2.4404568978513, 48.547942173936001 ], [ 2.4251629556174, 48.544471510363003 ], [ 2.4027809747231, 48.563192995735996 ], [ 2.408809743076199, 48.564717296114999 ], [ 2.422232712456299, 48.573221173418005 ], [ 2.4168993050023, 48.576814095027999 ], [ 2.4131722453647, 48.586774565483992 ], [ 2.4034267145496, 48.591832877403007 ], [ 2.393599294387, 48.589276163358008 ], [ 2.4071612859833, 48.594943288176999 ], [ 2.3985660179234, 48.607125883267003 ], [ 2.3934853418809, 48.608252422154003 ], [ 2.3840453922122, 48.602053787524994 ], [ 2.3621955121314, 48.601483565945003 ], [ 2.3562876933924, 48.597165414621003 ], [ 2.3417935340179, 48.594088842729008 ], [ 2.3384486206491, 48.590499060228993 ], [ 2.3265914268932, 48.592944133580993 ], [ 2.3132790476817, 48.575758351632984 ], [ 2.2904298680085, 48.58106310059199 ], [ 2.281650533585999, 48.572512157032996 ], [ 2.2684928718965, 48.576055487061993 ], [ 2.2591828150246, 48.573237984815002 ], [ 2.241594919574, 48.578528249865002 ], [ 2.2380736531682, 48.576137167124998 ], [ 2.2263691843389, 48.566755454183991 ], [ 2.2111237974174, 48.56961678224701 ], [ 2.1985201224833, 48.575665021560994 ], [ 2.199095124567, 48.580085840190002 ], [ 2.2136303554468, 48.582516282674 ], [ 2.2257216914377, 48.584159026327995 ], [ 2.2348929821959, 48.58896987736501 ], [ 2.2373316025492, 48.59964178152201 ], [ 2.242894790003, 48.60368932693099 ], [ 2.2363704931126, 48.612537965479994 ], [ 2.2240322475394, 48.622606923962998 ], [ 2.2254920019639, 48.628583098756998 ], [ 2.205132142712, 48.630854353694993 ], [ 2.2029686516757, 48.628379646794002 ], [ 2.2020180725158, 48.628423656899997 ], [ 2.1878868637167, 48.638609016935995 ], [ 2.181789626311, 48.63185941789699 ], [ 2.1649714134083, 48.644337192172991 ], [ 2.1771053610034, 48.655997672066 ], [ 2.186655196372199, 48.661178816769002 ], [ 2.1912669571129, 48.668263319605991 ], [ 2.1721597517476, 48.675348973016 ], [ 2.1640991514932, 48.675060657818001 ], [ 2.1612889993982, 48.675567138074001 ], [ 2.1415669174145, 48.685931272747993 ], [ 2.1316133569394, 48.686240598327991 ], [ 2.1215972955607, 48.680154897974994 ], [ 2.1121463457387, 48.673960077453003 ] ] ] ] } }
]
}
